[{"OBJECT_NAME":"STARLINK-2683","OBJECT_ID":"2021-040AL","EPOCH":"2026-03-10T00:00:02.999808","MEAN_MOTION":15.28972627,"ECCENTRICITY":0.00011266,"INCLINATION":53.1521,"RA_OF_ASC_NODE":189.5891,"ARG_OF_PERICENTER":130.9987,"MEAN_ANOMALY":108.1708,"EPHEMERIS_TYPE":0,"CLASSIFICATION_TYPE":"U","NORAD_CAT_ID":48462,"ELEMENT_SET_NO":999,"REV_AT_EPOCH":579,"BSTAR":0.029553319,"MEAN_MOTION_DOT":0.00908704,"MEAN_MOTION_DDOT":0},{"OBJECT_NAME":"BANDWAGON-2 OBJECT AC","OBJECT_ID":"2024-247AC","EPOCH":"2026-03-09T11:57:27.837504","MEAN_MOTION":15.35059671,"ECCENTRICITY":0.0004253,"INCLINATION":45.0036,"RA_OF_ASC_NODE":108.1066,"ARG_OF_PERICENTER":352.6172,"MEAN_ANOMALY":7.4651,"EPHEMERIS_TYPE":0,"CLASSIFICATION_TYPE":"U","NORAD_CAT_ID":62403,"ELEMENT_SET_NO":999,"REV_AT_EPOCH":6782,"BSTAR":0.00062485362,"MEAN_MOTION_DOT":0.00021432,"MEAN_MOTION_DDOT":0}]
